[{"OBJECT_NAME":"STARLINK-30471","OBJECT_ID":"2023-147V","EPOCH":"2026-03-09T22:00:01.999584","MEAN_MOTION":15.22696665,"ECCENTRICITY":0.00019119,"INCLINATION":42.9989,"RA_OF_ASC_NODE":323.1894,"ARG_OF_PERICENTER":261.2581,"MEAN_ANOMALY":12.9652,"EPHEMERIS_TYPE":0,"CLASSIFICATION_TYPE":"U","NORAD_CAT_ID":57932,"ELEMENT_SET_NO":999,"REV_AT_EPOCH":573,"BSTAR":0.038177266,"MEAN_MOTION_DOT":0.00985907,"MEAN_MOTION_DDOT":0},{"OBJECT_NAME":"NOAA 16 DEB","OBJECT_ID":"2000-055BK","EPOCH":"2026-03-09T02:17:10.174560","MEAN_MOTION":15.30191008,"ECCENTRICITY":0.00052528,"INCLINATION":98.9831,"RA_OF_ASC_NODE":305.6383,"ARG_OF_PERICENTER":26.64,"MEAN_ANOMALY":333.5104,"EPHEMERIS_TYPE":0,"CLASSIFICATION_TYPE":"U","NORAD_CAT_ID":41128,"ELEMENT_SET_NO":999,"REV_AT_EPOCH":53406,"BSTAR":0.017668961,"MEAN_MOTION_DOT":0.00549039,"MEAN_MOTION_DDOT":0}]
